MALLIGYONG-1            
1 58400U 23179A   24071.21927871  .00005494  00000+0  24803-3 0  9991
2 58400  97.4179 319.5309 0007958 240.6269 119.4172 15.21365033 16825
